const stations = "KHQM KUIL KCLM CYYJ KFHR KORS KBLI KBVS KNUW KAWO K0S9 KPAE KRNT KBFI KSEA KPWT KSHN KOLM KGRF KTIW KTCM KPLU KENL KEAT KS52";

const text = "K0S9 040235Z AUTO 00000KT 10SM 04/02 A3019 RMK AO2,K0S9,2021-12-04T02:35:00Z,48.05,-122.82,4.0,2.0,0,0,,10.0,30.188976,,,TRUE,TRUE,,,,,,,,,,,,,,,,,,,,,,,,,,,SPECI,33.0 \
KORS 040235Z AUTO 34010KT 10SM BKN120 06/02 A3020 RMK AO2,KORS,2021-12-04T02:35:00Z,48.7,-122.92,6.0,2.0,340,10,,10.0,30.200787,,,TRUE,TRUE,,,,,,,BKN,12000,,,,,,,VFR,,,,,,,,,,,,SPECI,7.0 \
KBVS 040215Z AUTO 00000KT 10SM CLR 02/01 A3020 RMK A01,KBVS,2021-12-04T02:15:00Z,48.47,-122.42,2.0,1.0,0,0,,10.0,30.200787,,,TRUE,TRUE,,,,,,,CLR,,,,,,,,VFR,,,,,,,,,,,,METAR,31.0 \
KS52 040215Z AUTO 00000KT 10SM CLR M01/M04 A3021 RMK AO2 T10101041,KS52,2021-12-04T02:15:00Z,48.42,-120.15,-1.0,-4.1,0,0,,10.0,30.209646,,,TRUE,TRUE,,,,,,,CLR,,,,,,,,VFR,,,,,,,,,,,,METAR,517.0 \
KENL 040215Z AUTO 03005KT 10SM CLR 14/09 A2997 RMK AO2 T01400085,KENL,2021-12-04T02:15:00Z,38.52,-89.1,14.0,8.5,30,5,,10.0,29.970472,,,TRUE,TRUE,,,,,,,CLR,,,,,,,,VFR,,,,,,,,,,,,METAR,161.0 \
KPLU 040215Z AUTO 00000KT 10SM OVC016 04/03 A3017 RMK AO2,KPLU,2021-12-04T02:15:00Z,47.1,-122.28,4.0,3.0,0,0,,10.0,30.171259,,,TRUE,TRUE,,,,,,,OVC,1600,,,,,,,MVFR,,,,,,,,,,,,METAR,164.0 \
KCLM 040206Z AUTO 14004KT 10SM SCT027 04/00 A3021 RMK AO2 T00390000,KCLM,2021-12-04T02:06:00Z,48.12,-123.5,3.9,0.0,140,4,,10.0,30.209646,,,TRUE,TRUE,,,,,,,SCT,2700,,,,,,,VFR,,,,,,,,,,,,SPECI,81.0 \
CYYJ 040200Z VRB02KT 30SM BKN170 03/01 A3021 RMK AC7 SLP233,CYYJ,2021-12-04T02:00:00Z,48.63,-123.42,3.0,1.0,0,2,,30.0,30.209646,1023.3,,,,,,,,,,BKN,17000,,,,,,,VFR,,,,,,,,,,,,METAR,16.0 \
KGRF 040158Z 03007KT 10SM OVC130 05/01 A3017 RMK AO2A SLP223 T00480007 $,KGRF,2021-12-04T01:58:00Z,47.07,-122.57,4.8,0.7,30,7,,10.0,30.171259,1022.3,,,TRUE,TRUE,,,,,,OVC,13000,,,,,,,VFR,,,,,,,,,,,,METAR,91.0 \
KPWT 040156Z AUTO 03007KT 10SM CLR 04/01 A3019 RMK AO2 SLP230 T00390011,KPWT,2021-12-04T01:56:00Z,47.5,-122.77,3.9,1.1,30,7,,10.0,30.188976,1023.0,,TRUE,TRUE,,,,,,,CLR,,,,,,,,VFR,,,,,,,,,,,,METAR,143.0 \
KNUW 040156Z 36007KT 10SM FEW012 OVC120 05/01 A3025 RMK AO2 SLP241 T00500011 $,KNUW,2021-12-04T01:56:00Z,48.35,-122.65,5.0,1.1,360,7,,10.0,30.250984,1024.1,,,TRUE,TRUE,,,,,,FEW,1200,OVC,12000,,,,,VFR,,,,,,,,,,,,METAR,1 \
KAWO 040156Z AUTO 00000KT 10SM CLR 03/01 A3021 RMK AO2 SLP235 T00280011,KAWO,2021-12-04T01:56:00Z,48.17,-122.17,2.8,1.1,0,0,,10.0,30.209646,1023.5,,TRUE,TRUE,,,,,,,CLR,,,,,,,,VFR,,,,,,,,,,,,METAR,38.0 \
KEAT 040155Z AUTO 00000KT 10SM OVC095 04/M04 A3021 RMK AO2 SLP238 T00441044,KEAT,2021-12-04T01:55:00Z,47.4,-120.2,4.4,-4.4,0,0,,10.0,30.209646,1023.8,,TRUE,TRUE,,,,,,,OVC,9500,,,,,,,VFR,,,,,,,,,,,,METAR,375.0 \
KOLM 040154Z 04007KT 10SM OVC022 05/01 A3017 RMK AO2 SLP219 T00500011,KOLM,2021-12-04T01:54:00Z,46.97,-122.9,5.0,1.1,40,7,,10.0,30.171259,1021.9,,,TRUE,,,,,,,OVC,2200,,,,,,,MVFR,,,,,,,,,,,,METAR,58.0 \
KHQM 040153Z AUTO 08011KT 10SM CLR 07/01 A3015 RMK AO2 SLP214 T00670011,KHQM,2021-12-04T01:53:00Z,46.97,-123.93,6.7,1.1,80,11,,10.0,30.15059,1021.4,,TRUE,TRUE,,,,,,,CLR,,,,,,,,VFR,,,,,,,,,,,,METAR,4.0 \
KTIW 040153Z 03008KT 10SM CLR 04/01 A3019 RMK AO2 SLP226 T00390011,KTIW,2021-12-04T01:53:00Z,47.27,-122.58,3.9,1.1,30,8,,10.0,30.188976,1022.6,,,TRUE,,,,,,,CLR,,,,,,,,VFR,,,,,,,,,,,,METAR,89.0 \
KSHN 040153Z AUTO 07004KT 10SM CLR 04/02 A3016 RMK AO2 SLP218 T00440017,KSHN,2021-12-04T01:53:00Z,47.23,-123.13,4.4,1.7,70,4,,10.0,30.159449,1021.8,,TRUE,TRUE,,,,,,,CLR,,,,,,,,VFR,,,,,,,,,,,,METAR,84.0 \
KSEA 040153Z 02009KT 10SM FEW015 BKN140 04/01 A3018 RMK AO2 SLP229 T00390011,KSEA,2021-12-04T01:53:00Z,47.45,-122.32,3.9,1.1,20,9,,10.0,30.180119,1022.9,,,TRUE,,,,,,,FEW,1500,BKN,14000,,,,,VFR,,,,,,,,,,,,METAR,115.0 \
KRNT 040153Z 36006KT 10SM CLR 05/01 A3019 RMK AO2 SLP229 T00500011,KRNT,2021-12-04T01:53:00Z,47.5,-122.22,5.0,1.1,360,6,,10.0,30.188976,1022.9,,,TRUE,,,,,,,CLR,,,,,,,,VFR,,,,,,,,,,,,METAR,7.0 \
KBFI 040153Z VRB04KT 10SM BKN060 05/01 A3020 RMK AO2 SLP227 T00500011,KBFI,2021-12-04T01:53:00Z,47.55,-122.32,5.0,1.1,0,4,,10.0,30.200787,1022.7,,,TRUE,,,,,,,BKN,6000,,,,,,,VFR,,,,,,,,,,,,METAR,7.0 \
KBLI 040153Z 00000KT 10SM CLR 03/02 A3021 RMK AO2 SLP241 T00280022,KBLI,2021-12-04T01:53:00Z,48.8,-122.53,2.8,2.2,0,0,,10.0,30.209646,1024.1,,,TRUE,,,,,,,CLR,,,,,,,,VFR,,,,,,,,,,,,METAR,46.0 \
KPAE 040153Z 34004KT 10SM BKN013 04/01 A3020 RMK AO2 SLP230 T00390011,KPAE,2021-12-04T01:53:00Z,47.92,-122.28,3.9,1.1,340,4,,10.0,30.200787,1023.0,,,TRUE,,,,,,,BKN,1300,,,,,,,MVFR,,,,,,,,,,,,METAR,166.0 \
KFHR 040153Z AUTO VRB04KT 10SM CLR 04/01 A3021 RMK AO2 SLP232 T00440006 TSNO,KFHR,2021-12-04T01:53:00Z,48.52,-123.03,4.4,0.6,0,4,,10.0,30.209646,1023.2,,TRUE,TRUE,,,TRUE,,,,CLR,,,,,,,,VFR,,,,,,,,,,,,METAR,34.0 \
KUIL 040153Z AUTO 05003KT 10SM CLR 04/01 A3016 RMK AO2 SLP214 T00390006,KUIL,2021-12-04T01:53:00Z,47.93,-124.55,3.9,0.6,50,3,,10.0,30.159449,1021.4,,TRUE,TRUE,,,,,,,CLR,,,,,,,,VFR,,,,,,,,,,,,METAR,58.0"


stations.split(' ').forEach(st => text.includes(st) || console.log(st));